CTC1_L_00393001-01
1 73047U 23585QP  26070.40835648  .00000000  00000+0  00000-0 0  9996
2 73047  90.0000   0.0000 0000000   0.0000   0.0000 13.03091871    16
CTC1_L_00393001-02
1 73048U 24168QY  26070.40835648  .00000000  00000+0  00000-0 0  9995
2 73048  90.0000   0.0000 0000000   0.0000  90.0000 13.03091871    16
CTC1_L_00393001-03
1 73049U 24851SQ  26070.40835648  .00000000  00000+0  00000-0 0  9995
2 73049  90.0000   0.0000 0000000   0.0000 180.0000 13.03091871    17
CTC1_L_00393001-04
1 73050U 25460AC  26070.40835648  .00000000  00000+0  00000-0 0  9994
2 73050  90.0000   0.0000 0000000   0.0000 270.0000 13.03091871    19
CTC1_L_00393002-01
1 73051U 24229O   26070.40835648  .00000000  00000+0  00000-0 0  9997
2 73051  90.0000  12.0000 0000000   0.0000  12.0000 13.03091871    17
CTC1_L_00393002-02
1 73052U 22299SK  26070.40835648  .00000000  00000+0  00000-0 0  9993
2 73052  90.0000  12.0000 0000000   0.0000 102.0000 13.03091871    18
CTC1_L_00393002-03
1 73053U 25737BD  26070.40835648  .00000000  00000+0  00000-0 0  9994
2 73053  90.0000  12.0000 0000000   0.0000 192.0000 13.03091871    18
CTC1_L_00393002-04
1 73054U 24430UM  26070.40835648  .00000000  00000+0  00000-0 0  9994
2 73054  90.0000  12.0000 0000000   0.0000 282.0000 13.03091871    19
CTC1_L_00393003-01
1 73055U 23916TK  26070.40835648  .00000000  00000+0  00000-0 0  9993
2 73055  90.0000  24.0000 0000000   0.0000  24.0000 13.03091871    17
CTC1_L_00393003-02
1 73056U 24537GK  26070.40835648  .00000000  00000+0  00000-0 0  9994
2 73056  90.0000  24.0000 0000000   0.0000 114.0000 13.03091871    18
CTC1_L_00393003-03
1 73057U 26248FE  26070.40835648  .00000000  00000+0  00000-0 0  9996
2 73057  90.0000  24.0000 0000000   0.0000 204.0000 13.03091871    19
CTC1_L_00393003-04
1 73058U 23734SD  26070.40835648  .00000000  00000+0  00000-0 0  9994
2 73058  90.0000  24.0000 0000000   0.0000 294.0000 13.03091871    19
CTC1_L_00393004-01
1 73059U 26732RZ  26070.40835648  .00000000  00000+0  00000-0 0  9996
2 73059  90.0000  36.0000 0000000   0.0000  36.0000 13.03091871    17
CTC1_L_00393004-02
1 73060U 22708HZ  26070.40835648  .00000000  00000+0  00000-0 0  9997
2 73060  90.0000  36.0000 0000000   0.0000 126.0000 13.03091871    19
CTC1_L_00393004-03
1 73061U 25928MH  26070.40835648  .00000000  00000+0  00000-0 0  9995
2 73061  90.0000  36.0000 0000000   0.0000 216.0000 13.03091871    10
CTC1_L_00393004-04
1 73062U 22108LU  26070.40835648  .00000000  00000+0  00000-0 0  9993
2 73062  90.0000  36.0000 0000000   0.0000 306.0000 13.03091871    11
CTC1_L_00393005-01
1 73063U 25570GX  26070.40835648  .00000000  00000+0  00000-0 0  9990
2 73063  90.0000  48.0000 0000000   0.0000  48.0000 13.03091871    18
CTC1_L_00393005-02
1 73064U 25935IV  26070.40835648  .00000000  00000+0  00000-0 0  9996
2 73064  90.0000  48.0000 0000000   0.0000 138.0000 13.03091871    19
CTC1_L_00393005-03
1 73065U 24270IO  26070.40835648  .00000000  00000+0  00000-0 0  9998
2 73065  90.0000  48.0000 0000000   0.0000 228.0000 13.03091871    10
CTC1_L_00393005-04
1 73066U 22863TT  26070.40835648  .00000000  00000+0  00000-0 0  9995
2 73066  90.0000  48.0000 0000000   0.0000 318.0000 13.03091871    11
CTC1_L_00393006-01
1 73067U 26101PQ  26070.40835648  .00000000  00000+0  00000-0 0  9995
2 73067  90.0000  60.0000 0000000   0.0000  60.0000 13.03091871    10
CTC1_L_00393006-02
1 73068U 22967EP  26070.40835648  .00000000  00000+0  00000-0 0  9992
2 73068  90.0000  60.0000 0000000   0.0000 150.0000 13.03091871    11
CTC1_L_00393006-03
1 73069U 26257CM  26070.40835648  .00000000  00000+0  00000-0 0  9999
2 73069  90.0000  60.0000 0000000   0.0000 240.0000 13.03091871    12
CTC1_L_00393006-04
1 73070U 26086MB  26070.40835648  .00000000  00000+0  00000-0 0  9991
2 73070  90.0000  60.0000 0000000   0.0000 330.0000 13.03091871    14
CTC1_L_00393007-01
1 73071U 22124EI  26070.40835648  .00000000  00000+0  00000-0 0  9991
2 73071  90.0000  72.0000 0000000   0.0000  72.0000 13.03091871    11
CTC1_L_00393007-02
1 73072U 25677AA  26070.40835648  .00000000  00000+0  00000-0 0  9998
2 73072  90.0000  72.0000 0000000   0.0000 162.0000 13.03091871    12
CTC1_L_00393007-03
1 73073U 24931GC  26070.40835648  .00000000  00000+0  00000-0 0  9991
2 73073  90.0000  72.0000 0000000   0.0000 252.0000 13.03091871    13
CTC1_L_00393007-04
1 73074U 24938YO  26070.40835648  .00000000  00000+0  00000-0 0  9999
2 73074  90.0000  72.0000 0000000   0.0000 342.0000 13.03091871    14
CTC1_L_00393008-01
1 73075U 24887TY  26070.40835648  .00000000  00000+0  00000-0 0  9993
2 73075  90.0000  84.0000 0000000   0.0000  84.0000 13.03091871    11
CTC1_L_00393008-02
1 73076U 25771AZ  26070.40835648  .00000000  00000+0  00000-0 0  9997
2 73076  90.0000  84.0000 0000000   0.0000 174.0000 13.03091871    12
CTC1_L_00393008-03
1 73077U 22691GJ  26070.40835648  .00000000  00000+0  00000-0 0  9996
2 73077  90.0000  84.0000 0000000   0.0000 264.0000 13.03091871    13
CTC1_L_00393008-04
1 73078U 22590IR  26070.40835648  .00000000  00000+0  00000-0 0  9995
2 73078  90.0000  84.0000 0000000   0.0000 354.0000 13.03091871    14
CTC1_L_00393009-01
1 73079U 22853EK  26070.40835648  .00000000  00000+0  00000-0 0  9998
2 73079  90.0000  96.0000 0000000   0.0000  96.0000 13.03091871    11
CTC1_L_00393009-02
1 73080U 23561HT  26070.40835648  .00000000  00000+0  00000-0 0  9997
2 73080  90.0000  96.0000 0000000   0.0000 186.0000 13.03091871    13
CTC1_L_00393009-03
1 73081U 22772NC  26070.40835648  .00000000  00000+0  00000-0 0  9991
2 73081  90.0000  96.0000 0000000   0.0000 276.0000 13.03091871    14
CTC1_L_00393009-04
1 73082U 22203PA  26070.40835648  .00000000  00000+0  00000-0 0  9991
2 73082  90.0000  96.0000 0000000   0.0000   6.0000 13.03091871    16
CTC1_L_00393010-01
1 73083U 26174ZF  26070.40835648  .00000000  00000+0  00000-0 0  9993
2 73083  90.0000 108.0000 0000000   0.0000 108.0000 13.03091871    14
CTC1_L_00393010-02
1 73084U 23300QC  26070.40835648  .00000000  00000+0  00000-0 0  9992
2 73084  90.0000 108.0000 0000000   0.0000 198.0000 13.03091871    14
CTC1_L_00393010-03
1 73085U 22419ZO  26070.40835648  .00000000  00000+0  00000-0 0  9993
2 73085  90.0000 108.0000 0000000   0.0000 288.0000 13.03091871    15
CTC1_L_00393010-04
1 73086U 25783ZN  26070.40835648  .00000000  00000+0  00000-0 0  9991
2 73086  90.0000 108.0000 0000000   0.0000  18.0000 13.03091871    17
CTC1_L_00393011-01
1 73087U 26760PM  26070.40835648  .00000000  00000+0  00000-0 0  9998
2 73087  90.0000 120.0000 0000000   0.0000 120.0000 13.03091871    16
CTC1_L_00393011-02
1 73088U 22464LZ  26070.40835648  .00000000  00000+0  00000-0 0  9996
2 73088  90.0000 120.0000 0000000   0.0000 210.0000 13.03091871    17
CTC1_L_00393011-03
1 73089U 25266BX  26070.40835648  .00000000  00000+0  00000-0 0  9990
2 73089  90.0000 120.0000 0000000   0.0000 300.0000 13.03091871    18
CTC1_L_00393011-04
1 73090U 22868YH  26070.40835648  .00000000  00000+0  00000-0 0  9997
2 73090  90.0000 120.0000 0000000   0.0000  30.0000 13.03091871    10
CTC1_L_00393012-01
1 73091U 22158NZ  26070.40835648  .00000000  00000+0  00000-0 0  9990
2 73091  90.0000 132.0000 0000000   0.0000 132.0000 13.03091871    17
CTC1_L_00393012-02
1 73092U 24415AV  26070.40835648  .00000000  00000+0  00000-0 0  9999
2 73092  90.0000 132.0000 0000000   0.0000 222.0000 13.03091871    18
CTC1_L_00393012-03
1 73093U 24711SE  26070.40835648  .00000000  00000+0  00000-0 0  9999
2 73093  90.0000 132.0000 0000000   0.0000 312.0000 13.03091871    19
CTC1_L_00393012-04
1 73094U 26715CI  26070.40835648  .00000000  00000+0  00000-0 0  9996
2 73094  90.0000 132.0000 0000000   0.0000  42.0000 13.03091871    10
CTC1_L_00393013-01
1 73095U 26945CB  26070.40835648  .00000000  00000+0  00000-0 0  9992
2 73095  90.0000 144.0000 0000000   0.0000 144.0000 13.03091871    17
CTC1_L_00393013-02
1 73096U 24422OW  26070.40835648  .00000000  00000+0  00000-0 0  9991
2 73096  90.0000 144.0000 0000000   0.0000 234.0000 13.03091871    18
CTC1_L_00393013-03
1 73097U 25057ZO  26070.40835648  .00000000  00000+0  00000-0 0  9997
2 73097  90.0000 144.0000 0000000   0.0000 324.0000 13.03091871    19
CTC1_L_00393013-04
1 73098U 25823BL  26070.40835648  .00000000  00000+0  00000-0 0  9999
2 73098  90.0000 144.0000 0000000   0.0000  54.0000 13.03091871    10
CTC1_L_00393014-01
1 73099U 23801GM  26070.40835648  .00000000  00000+0  00000-0 0  9994
2 73099  90.0000 156.0000 0000000   0.0000 156.0000 13.03091871    17
CTC1_L_00393014-02
1 73100U 25165CB  26070.40835648  .00000000  00000+0  00000-0 0  9992
2 73100  90.0000 156.0000 0000000   0.0000 246.0000 13.03091871    10
CTC1_L_00393014-03
1 73101U 22213BD  26070.40835648  .00000000  00000+0  00000-0 0  9994
2 73101  90.0000 156.0000 0000000   0.0000 336.0000 13.03091871    11
CTC1_L_00393014-04
1 73102U 23741PD  26070.40835648  .00000000  00000+0  00000-0 0  9992
2 73102  90.0000 156.0000 0000000   0.0000  66.0000 13.03091871    12
CTC1_L_00393015-01
1 73103U 24111GJ  26070.40835648  .00000000  00000+0  00000-0 0  9995
2 73103  90.0000 168.0000 0000000   0.0000 168.0000 13.03091871    19
CTC1_L_00393015-02
1 73104U 24113NP  26070.40835648  .00000000  00000+0  00000-0 0  9998
2 73104  90.0000 168.0000 0000000   0.0000 258.0000 13.03091871    10
CTC1_L_00393015-03
1 73105U 26234JL  26070.40835648  .00000000  00000+0  00000-0 0  9995
2 73105  90.0000 168.0000 0000000   0.0000 348.0000 13.03091871    11
CTC1_L_00393015-04
1 73106U 25798TB  26070.40835648  .00000000  00000+0  00000-0 0  9990
2 73106  90.0000 168.0000 0000000   0.0000  78.0000 13.03091871    12
CTC1_L_00393016-01
1 73107U 24654BZ  26070.40835648  .00000000  00000+0  00000-0 0  9991
2 73107  90.0000 180.0000 0000000   0.0000 180.0000 13.03091871    11
CTC1_L_00393016-02
1 73108U 23932PZ  26070.40835648  .00000000  00000+0  00000-0 0  9990
2 73108  90.0000 180.0000 0000000   0.0000 270.0000 13.03091871    12
